RASSVET-3 9             
1 68368U 26061J   26099.28004551  .00105903  28185-5  33710-3 0  9991
2 68368  82.2957  89.9381 0024073  12.9399 347.2486 15.90513561  2634
RASSVET-3 10            
1 68369U 26061K   26099.28315147  .00059937  12663-6  19695-3 0  9994
2 68369  82.2973  89.9443 0024344  12.5948 347.5926 15.89828926  2633
RASSVET-3 11            
1 68370U 26061L   26099.28271838  .00059006  88680-7  19365-3 0  9998
2 68370  82.2973  89.9434 0024180  12.4719 347.7146 15.89858574  2636
RASSVET-3 12            
1 68371U 26061M   26099.28221026  .00093809  19473-5  30630-3 0  9992
2 68371  82.2972  89.9428 0023979  12.4459 347.7399 15.90010818  2638
RASSVET-3 13            
1 68372U 26061N   26099.28198055  .00104941  27297-5  34126-3 0  9995
2 68372  82.2970  89.9423 0023619  12.3984 347.7863 15.90113420  2634
RASSVET-3 14            
1 68373U 26061P   26099.28125598  .00107224  29046-5  34717-3 0  9995
2 68373  82.2972  89.9413 0023548  12.1999 347.9838 15.90203479  2639
RASSVET-3 15            
1 68374U 26061Q   26099.28084397  .00111691  32596-5  35854-3 0  9997
2 68374  82.2967  89.9405 0023099  12.2663 347.9166 15.90392671  2632
RASSVET-3 16            
1 68375U 26061R   26098.96616900  .00080345  10258-5  32845-3 0  9992
2 68375  82.2954  90.2947 0022658  20.2085 340.0076 15.85523656  2583
SUPERVIEW NEO-2 OBJECT A
1 68377U 26062A   26096.24953954  .00003763  00000+0  17461-3 0  9991
2 68377  97.4366 104.5810 0006667 222.4946 137.5774 15.20635232  1724
SUPERVIEW NEO-2 OBJECT B
1 68378U 26062B   26097.10505252  .00003481  00000+0  16456-3 0  9992
2 68378  97.4352 105.4222 0007458 218.5897 141.4806 15.20032290  1856
STARLINK-36296          
1 68380U 26063A   26099.04975326  .00508948  11474-3  10108-2 0  9990
2 68380  97.2866 240.3733 0004723  82.3449 277.8365 15.99912520  2422
STARLINK-37111          
1 68381U 26063B   26099.25002315  .00000917  00000+0  55321-5 0  9994
2 68381  97.2830 240.4788 0001478  99.5535  72.9327 15.80802209  3374
STARLINK-36946          
1 68382U 26063C   26099.25002315  .00054589  00000+0  28444-3 0  9993
2 68382  97.2827 240.4802 0001572  96.1190  80.6484 15.80777297  3371
STARLINK-37121          
1 68383U 26063D   26099.25002315  .00069440  00000+0  36081-3 0  9992
2 68383  97.2828 240.4852 0001255  83.5181 101.7898 15.80790222  3373
STARLINK-37137          
1 68384U 26063E   26099.25002315 -.00111821  00000+0 -75756-3 0  9998
2 68384  97.2836 240.4769 0001520  53.0577 116.1362 15.75222860  3374
