[{"OBJECT_NAME":"RASSVET-3 9","OBJECT_ID":"2026-061J","EPOCH":"2026-04-09T06:43:15.932064","MEAN_MOTION":15.90513561,"ECCENTRICITY":0.00240737,"INCLINATION":82.2957,"RA_OF_ASC_NODE":89.9381,"ARG_OF_PERICENTER":12.9399,"MEAN_ANOMALY":347.2486,"EPHEMERIS_TYPE":0,"CLASSIFICATION_TYPE":"U","NORAD_CAT_ID":68368,"ELEMENT_SET_NO":999,"REV_AT_EPOCH":263,"BSTAR":0.00033710109,"MEAN_MOTION_DOT":0.00105903,"MEAN_MOTION_DDOT":2.818457e-6},{"OBJECT_NAME":"RASSVET-3 10","OBJECT_ID":"2026-061K","EPOCH":"2026-04-09T06:47:44.287008","MEAN_MOTION":15.89828926,"ECCENTRICITY":0.0024344,"INCLINATION":82.2973,"RA_OF_ASC_NODE":89.9443,"ARG_OF_PERICENTER":12.5948,"MEAN_ANOMALY":347.5926,"EPHEMERIS_TYPE":0,"CLASSIFICATION_TYPE":"U","NORAD_CAT_ID":68369,"ELEMENT_SET_NO":999,"REV_AT_EPOCH":263,"BSTAR":0.00019694696,"MEAN_MOTION_DOT":0.00059937,"MEAN_MOTION_DDOT":1.26625e-7},{"OBJECT_NAME":"RASSVET-3 11","OBJECT_ID":"2026-061L","EPOCH":"2026-04-09T06:47:06.868032","MEAN_MOTION":15.89858574,"ECCENTRICITY":0.00241805,"INCLINATION":82.2973,"RA_OF_ASC_NODE":89.9434,"ARG_OF_PERICENTER":12.4719,"MEAN_ANOMALY":347.7146,"EPHEMERIS_TYPE":0,"CLASSIFICATION_TYPE":"U","NORAD_CAT_ID":68370,"ELEMENT_SET_NO":999,"REV_AT_EPOCH":263,"BSTAR":0.00019364585,"MEAN_MOTION_DOT":0.00059006,"MEAN_MOTION_DDOT":8.868e-8},{"OBJECT_NAME":"RASSVET-3 12","OBJECT_ID":"2026-061M","EPOCH":"2026-04-09T06:46:22.966464","MEAN_MOTION":15.90010818,"ECCENTRICITY":0.00239791,"INCLINATION":82.2972,"RA_OF_ASC_NODE":89.9428,"ARG_OF_PERICENTER":12.4459,"MEAN_ANOMALY":347.7399,"EPHEMERIS_TYPE":0,"CLASSIFICATION_TYPE":"U","NORAD_CAT_ID":68371,"ELEMENT_SET_NO":999,"REV_AT_EPOCH":263,"BSTAR":0.00030630059,"MEAN_MOTION_DOT":0.00093809,"MEAN_MOTION_DDOT":1.947275e-6},{"OBJECT_NAME":"RASSVET-3 13","OBJECT_ID":"2026-061N","EPOCH":"2026-04-09T06:46:03.119520","MEAN_MOTION":15.9011342,"ECCENTRICITY":0.00236199,"INCLINATION":82.297,"RA_OF_ASC_NODE":89.9423,"ARG_OF_PERICENTER":12.3984,"MEAN_ANOMALY":347.7863,"EPHEMERIS_TYPE":0,"CLASSIFICATION_TYPE":"U","NORAD_CAT_ID":68372,"ELEMENT_SET_NO":999,"REV_AT_EPOCH":263,"BSTAR":0.00034126411,"MEAN_MOTION_DOT":0.00104941,"MEAN_MOTION_DDOT":2.729727e-6},{"OBJECT_NAME":"RASSVET-3 14","OBJECT_ID":"2026-061P","EPOCH":"2026-04-09T06:45:00.516672","MEAN_MOTION":15.90203479,"ECCENTRICITY":0.00235489,"INCLINATION":82.2972,"RA_OF_ASC_NODE":89.9413,"ARG_OF_PERICENTER":12.1999,"MEAN_ANOMALY":347.9838,"EPHEMERIS_TYPE":0,"CLASSIFICATION_TYPE":"U","NORAD_CAT_ID":68373,"ELEMENT_SET_NO":999,"REV_AT_EPOCH":263,"BSTAR":0.00034716656,"MEAN_MOTION_DOT":0.00107224,"MEAN_MOTION_DDOT":2.904591e-6},{"OBJECT_NAME":"RASSVET-3 15","OBJECT_ID":"2026-061Q","EPOCH":"2026-04-09T06:44:24.919008","MEAN_MOTION":15.90392671,"ECCENTRICITY":0.00230992,"INCLINATION":82.2967,"RA_OF_ASC_NODE":89.9405,"ARG_OF_PERICENTER":12.2663,"MEAN_ANOMALY":347.9166,"EPHEMERIS_TYPE":0,"CLASSIFICATION_TYPE":"U","NORAD_CAT_ID":68374,"ELEMENT_SET_NO":999,"REV_AT_EPOCH":263,"BSTAR":0.00035854156,"MEAN_MOTION_DOT":0.00111691,"MEAN_MOTION_DDOT":3.259605e-6},{"OBJECT_NAME":"RASSVET-3 16","OBJECT_ID":"2026-061R","EPOCH":"2026-04-08T23:11:17.001600","MEAN_MOTION":15.85523656,"ECCENTRICITY":0.00226584,"INCLINATION":82.2954,"RA_OF_ASC_NODE":90.2947,"ARG_OF_PERICENTER":20.2085,"MEAN_ANOMALY":340.0076,"EPHEMERIS_TYPE":0,"CLASSIFICATION_TYPE":"U","NORAD_CAT_ID":68375,"ELEMENT_SET_NO":999,"REV_AT_EPOCH":258,"BSTAR":0.00032845441,"MEAN_MOTION_DOT":0.00080345,"MEAN_MOTION_DDOT":1.025752e-6},{"OBJECT_NAME":"SUPERVIEW NEO-2 OBJECT A","OBJECT_ID":"2026-062A","EPOCH":"2026-04-06T05:59:20.216256","MEAN_MOTION":15.20635232,"ECCENTRICITY":0.0006667,"INCLINATION":97.4366,"RA_OF_ASC_NODE":104.581,"ARG_OF_PERICENTER":222.4946,"MEAN_ANOMALY":137.5774,"EPHEMERIS_TYPE":0,"CLASSIFICATION_TYPE":"U","NORAD_CAT_ID":68377,"ELEMENT_SET_NO":999,"REV_AT_EPOCH":172,"BSTAR":0.00017461,"MEAN_MOTION_DOT":3.763e-5,"MEAN_MOTION_DDOT":0},{"OBJECT_NAME":"SUPERVIEW NEO-2 OBJECT B","OBJECT_ID":"2026-062B","EPOCH":"2026-04-07T02:31:16.537728","MEAN_MOTION":15.2003229,"ECCENTRICITY":0.00074582,"INCLINATION":97.4352,"RA_OF_ASC_NODE":105.4222,"ARG_OF_PERICENTER":218.5897,"MEAN_ANOMALY":141.4806,"EPHEMERIS_TYPE":0,"CLASSIFICATION_TYPE":"U","NORAD_CAT_ID":68378,"ELEMENT_SET_NO":999,"REV_AT_EPOCH":185,"BSTAR":0.00016455912,"MEAN_MOTION_DOT":3.481e-5,"MEAN_MOTION_DDOT":0},{"OBJECT_NAME":"STARLINK-36296","OBJECT_ID":"2026-063A","EPOCH":"2026-04-09T01:11:38.681664","MEAN_MOTION":15.9991252,"ECCENTRICITY":0.0004723,"INCLINATION":97.2866,"RA_OF_ASC_NODE":240.3733,"ARG_OF_PERICENTER":82.3449,"MEAN_ANOMALY":277.8365,"EPHEMERIS_TYPE":0,"CLASSIFICATION_TYPE":"U","NORAD_CAT_ID":68380,"ELEMENT_SET_NO":999,"REV_AT_EPOCH":242,"BSTAR":0.0010107505,"MEAN_MOTION_DOT":0.00508948,"MEAN_MOTION_DDOT":0.00011473513},{"OBJECT_NAME":"STARLINK-37111","OBJECT_ID":"2026-063B","EPOCH":"2026-04-09T06:00:02.000160","MEAN_MOTION":15.80802209,"ECCENTRICITY":0.00014785,"INCLINATION":97.283,"RA_OF_ASC_NODE":240.4788,"ARG_OF_PERICENTER":99.5535,"MEAN_ANOMALY":72.9327,"EPHEMERIS_TYPE":0,"CLASSIFICATION_TYPE":"U","NORAD_CAT_ID":68381,"ELEMENT_SET_NO":999,"REV_AT_EPOCH":337,"BSTAR":5.532066e-6,"MEAN_MOTION_DOT":9.17e-6,"MEAN_MOTION_DDOT":0},{"OBJECT_NAME":"STARLINK-36946","OBJECT_ID":"2026-063C","EPOCH":"2026-04-09T06:00:02.000160","MEAN_MOTION":15.80777297,"ECCENTRICITY":0.00015727,"INCLINATION":97.2827,"RA_OF_ASC_NODE":240.4802,"ARG_OF_PERICENTER":96.119,"MEAN_ANOMALY":80.6484,"EPHEMERIS_TYPE":0,"CLASSIFICATION_TYPE":"U","NORAD_CAT_ID":68382,"ELEMENT_SET_NO":999,"REV_AT_EPOCH":337,"BSTAR":0.00028444484,"MEAN_MOTION_DOT":0.00054589,"MEAN_MOTION_DDOT":0},{"OBJECT_NAME":"STARLINK-37121","OBJECT_ID":"2026-063D","EPOCH":"2026-04-09T06:00:02.000160","MEAN_MOTION":15.80790222,"ECCENTRICITY":0.00012555,"INCLINATION":97.2828,"RA_OF_ASC_NODE":240.4852,"ARG_OF_PERICENTER":83.5181,"MEAN_ANOMALY":101.7898,"EPHEMERIS_TYPE":0,"CLASSIFICATION_TYPE":"U","NORAD_CAT_ID":68383,"ELEMENT_SET_NO":999,"REV_AT_EPOCH":337,"BSTAR":0.00036080813,"MEAN_MOTION_DOT":0.0006944,"MEAN_MOTION_DDOT":0},{"OBJECT_NAME":"STARLINK-37137","OBJECT_ID":"2026-063E","EPOCH":"2026-04-09T06:00:02.000160","MEAN_MOTION":15.7522286,"ECCENTRICITY":0.000152,"INCLINATION":97.2836,"RA_OF_ASC_NODE":240.4769,"ARG_OF_PERICENTER":53.0577,"MEAN_ANOMALY":116.1362,"EPHEMERIS_TYPE":0,"CLASSIFICATION_TYPE":"U","NORAD_CAT_ID":68384,"ELEMENT_SET_NO":999,"REV_AT_EPOCH":337,"BSTAR":-0.0007575593,"MEAN_MOTION_DOT":-0.00111821,"MEAN_MOTION_DDOT":0}]
